NOAA 15                 
1 25338U 98030A   24348.42216921  .00000347  00000+0  16068-3 0  9996
2 25338  98.5532  11.6946 0010696 155.4264 204.7428 14.26824322382993
DMSP 5D-3 F16 (USA 172) 
1 28054U 03048A   24348.45588060  .00000315  00000+0  18909-3 0  9999
2 28054  99.0199 356.6311 0006403 266.2366 226.7923 14.14226686 91615
NOAA 18                 
1 28654U 05018A   24348.45898289  .00000347  00000+0  20784-3 0  9990
2 28654  98.8611  63.8298 0013249 274.8759  85.0901 14.13451112  8584
METEOSAT-9 (MSG-2)      
1 28912U 05049B   24331.84702219  .00000144  00000+0  00000+0 0  9993
2 28912   8.0635  59.4636 0001814 203.9464 153.5423  1.00276594  1313
EWS-G1 (GOES 13)        
1 29155U 06018A   24347.89802769  .00000007  00000+0  00000+0 0  9991
2 29155   3.0934  83.1401 0064324 256.9135 155.6459  0.98827949 37809
DMSP 5D-3 F17 (USA 191) 
1 29522U 06050A   24348.49241012  .00000346  00000+0  20209-3 0  9993
2 29522  98.7420 355.3790 0009958 183.0878 177.0236 14.14691985934549
FENGYUN 3A              
1 32958U 08026A   24347.75608713  .00000276  00000+0  15200-3 0  9995
2 32958  98.6276 289.9090 0007617 279.8519  80.1797 14.19306460857282
NOAA 19                 
1 33591U 09005A   24348.43681163  .00000321  00000+0  19537-3 0  9991
2 33591  99.0247  45.9404 0014393 144.1270 216.0871 14.13227856816941
GOES 14                 
1 35491U 09033A   24348.13588244 -.00000053  00000+0  00000+0 0  9990
2 35491   0.2518  91.4053 0003044 131.5240 159.8474  1.00272799 56634
DMSP 5D-3 F18 (USA 210) 
1 35951U 09057A   24348.53753125  .00000509  00000+0  28872-3 0  9999
2 35951  98.8379 321.7134 0011654  21.2542 338.9113 14.14421979781717
EWS-G2 (GOES 15)        
1 36411U 10008A   24347.93516014  .00000052  00000+0  00000+0 0  9998
2 36411   0.1360 271.7260 0006685 341.1833 227.2996  1.00269230 54111
COMS 1                  
1 36744U 10032A   24348.08347958 -.00000332  00000+0  00000+0 0  9992
2 36744   3.4039  82.5945 0001013 175.3951 342.4988  1.00270726 53128
FENGYUN 3B              
1 37214U 10059A   24348.53329812  .00000205  00000+0  13003-3 0  9992
2 37214  99.0374  18.9898 0021348 307.4139 211.7161 14.14640136729602
SUOMI NPP               
1 37849U 11061A   24348.49648073  .00000184  00000+0  10811-3 0  9998
2 37849  98.7407 283.9035 0002259  89.6465 270.4970 14.19516702680306
METEOSAT-10 (MSG-3)     
1 38552U 12035B   24347.80862759  .00000005  00000+0  00000+0 0  9992
2 38552   3.3744  61.8430 0001452 217.8197  93.4818  1.00268787 45321
METOP-B                 
1 38771U 12049A   24348.44986371  .00000377  00000+0  19222-3 0  9990
2 38771  98.6061  41.4387 0001646 120.9406 239.1933 14.21382691635016
INSAT-3D                
1 39216U 13038B   24347.90576006 -.00000325  00000+0  00000+0 0  9998
2 39216   0.4975  90.4154 0002448 171.1513 276.0868  1.00267422 41554
FENGYUN 3C              
1 39260U 13052A   24348.54042678  .00000226  00000+0  13445-3 0  9997
2 39260  98.4399 338.7520 0011304 163.9555 196.1980 14.16364330580711
METEOR-M 2              
1 40069U 14037A   24348.43503415  .00000283  00000+0  14914-3 0  9994
2 40069  98.4514 334.8141 0005450 186.1523 173.9589 14.21162394541089
HIMAWARI-8              
1 40267U 14060A   24347.69368458 -.00000261  00000+0  00000+0 0  9997
2 40267   0.0354 111.4319 0001080 158.1658 202.6617  1.00269492 37238
FENGYUN 2G              
1 40367U 14090A   24347.82834948 -.00000289  00000+0  00000+0 0  9998
2 40367   4.2352  79.4853 0001463 163.1323 236.8096  1.00280148 36510
METEOSAT-11 (MSG-4)     
1 40732U 15034A   24348.16786164  .00000075  00000+0  00000+0 0  9999
2 40732   1.8232  71.6216 0001858 162.5478 277.9941  1.00265650 34485
ELEKTRO-L 2             
1 41105U 15074A   24348.09702104 -.00000106  00000+0  00000+0 0  9998
2 41105   5.2979  77.2969 0004224 191.9555 193.4863  1.00270813 32991
INSAT-3DR               
1 41752U 16054A   24347.84077164 -.00000063  00000+0  00000+0 0  9990
2 41752   0.0982  95.6512 0014308 174.0804 188.9736  1.00270526 30297
HIMAWARI-9              
1 41836U 16064A   24347.63104719 -.00000260  00000+0  00000+0 0  9997
2 41836   0.0334 150.4047 0000946 117.1181 182.2344  1.00270686 29672
GOES 16                 
1 41866U 16071A   24347.79368414 -.00000233  00000+0  00000+0 0  9999
2 41866   0.0358 240.0227 0001411  65.0428 347.4517  1.00271516 29579
FENGYUN 4A              
1 41882U 16077A   24347.89724576 -.00000178  00000+0  00000+0 0  9997
2 41882   0.9134  85.8264 0009267 337.7384  67.5898  1.00261785 29402
CYGFM05                 
1 41884U 16078A   24347.87601375  .00014359  00000+0  42890-3 0  9991
2 41884  34.9628 244.7847 0010100  18.9730 341.1363 15.33699577443462
CYGFM04                 
1 41885U 16078B   24347.94299608  .00014979  00000+0  43146-3 0  9995
2 41885  34.9367 226.3935 0008671  36.2194 323.9109 15.34843409443589
CYGFM02                 
1 41886U 16078C   24348.04859604  .00016635  00000+0  46765-3 0  9997
2 41886  34.9456 227.3751 0011174  30.6591 329.4777 15.35563355443769
CYGFM01                 
1 41887U 16078D   24347.88523056  .00014071  00000+0  42391-3 0  9991
2 41887  34.9464 248.7920 0010911   2.6868 357.3906 15.33420180443397
CYGFM08                 
1 41888U 16078E   24347.91321285  .00014995  00000+0  43447-3 0  9994
2 41888  34.9484 235.0102 0011702  29.4190 330.7184 15.34629986443596
CYGFM07                 
1 41890U 16078G   24347.91301679  .00015820  00000+0  45253-3 0  9997
2 41890  34.9494 225.8596 0008894  43.4304 316.7113 15.35052903443591
CYGFM03                 
1 41891U 16078H   24347.89639523  .00015164  00000+0  43609-3 0  9991
2 41891  34.9453 227.3203 0008679  25.4133 334.7010 15.34894028443575
FENGYUN 3D              
1 43010U 17072A   24348.42201335  .00000234  00000+0  13283-3 0  9994
2 43010  98.9372 304.3560 0001637 147.0655 213.0623 14.19519206366846
NOAA 20 (JPSS-1)        
1 43013U 17073A   24348.44201551  .00000162  00000+0  97522-4 0  9999
2 43013  98.7249 283.4775 0002192  75.5153 284.6266 14.19518044366330
GOES 17                 
1 43226U 18022A   24347.93079535 -.00000076  00000+0  00000+0 0  9993
2 43226   0.0121  96.1749 0003645 162.7886  53.5517  1.00270855 24892
FENGYUN 2H              
1 43491U 18050A   24347.89585567 -.00000116  00000+0  00000+0 0  9995
2 43491   1.6065  85.5687 0001471 165.1376 233.1562  1.00272655 23917
METOP-C                 
1 43689U 18087A   24348.42136899  .00000268  00000+0  14232-3 0  9997
2 43689  98.7016  45.3889 0000446 346.8826  13.2339 14.21492830316589
GEO-KOMPSAT-2A          
1 43823U 18100A   24347.83408360 -.00000329  00000+0  00000+0 0  9995
2 43823   0.0553 131.6039 0000293 359.6073  19.3446  1.00269501 22134
METEOR-M2 2             
1 44387U 19038A   24348.18671649  .00000282  00000+0  14232-3 0  9996
2 44387  98.8522 318.3533 0001749 129.7592 230.3740 14.24088458282863
ARKTIKA-M 1             
1 47719U 21016A   24341.22533358  .00000148  00000+0  00000+0 0  9994
2 47719  63.1351 131.6510 7009744 268.4762  17.4646  2.00604882 27593
FENGYUN 3E              
1 49008U 21062A   24348.48910480  .00000073  00000+0  55135-4 0  9999
2 49008  98.7383 347.4268 0000881 196.1426 163.9723 14.19822907178438
GOES 18                 
1 51850U 22021A   24347.92426562  .00000111  00000+0  00000+0 0  9993
2 51850   0.0414 158.1805 0000690 136.8182 342.8385  1.00271884 10276
NOAA 21 (JPSS-2)        
1 54234U 22150A   24348.12752515  .00000197  00000+0  11394-3 0  9994
2 54234  98.7101 283.7520 0001503  27.1719 332.9536 14.19568102108365
METEOSAT-12 (MTG-I1)    
1 54743U 22170C   24347.96921782  .00000007  00000+0  00000+0 0  9994
2 54743   0.5868  36.8786 0001676 218.1536 175.7506  1.00268416  7451
TIANMU-1 03             
1 55973U 23039A   24348.41285947  .00012234  00000+0  43825-3 0  9993
2 55973  97.4816 138.8787 0003655 268.1167  91.9654 15.28889451 96176
TIANMU-1 04             
1 55974U 23039B   24348.44801396  .00012912  00000+0  46013-3 0  9994
2 55974  97.4742 138.3253 0004636 263.8394  96.2318 15.29043310 96174
TIANMU-1 05             
1 55975U 23039C   24348.44582804  .00012771  00000+0  45749-3 0  9993
2 55975  97.4789 138.7310 0003366 291.2038  68.8842 15.28880404 96161
TIANMU-1 06             
1 55976U 23039D   24348.46913820  .00012257  00000+0  43567-3 0  9997
2 55976  97.4802 138.9645 0003799 287.6538  72.4287 15.29144169 96172
METEOR-M2 3             
1 57166U 23091A   24348.36930006  .00000065  00000+0  47572-4 0  9997
2 57166  98.6899  41.2219 0003524 345.8579  14.2501 14.23959803 76123
TIANMU-1 07             
1 57399U 23101A   24348.20455825  .00007528  00000+0  33877-3 0  9994
2 57399  97.3404  40.5693 0003048 289.2519  70.8387 15.21368643 77602
TIANMU-1 08             
1 57400U 23101B   24348.43543510  .00008179  00000+0  36738-3 0  9993
2 57400  97.3392  40.6453 0005339 291.6571  68.4096 15.21398607 77632
TIANMU-1 09             
1 57401U 23101C   24348.41938568  .00008074  00000+0  36306-3 0  9998
2 57401  97.3348  40.3641 0005060 288.3981  71.6705 15.21364371 77633
TIANMU-1 10             
1 57402U 23101D   24348.45242291  .00007912  00000+0  35563-3 0  9998
2 57402  97.3428  40.8588 0007160 284.9348  75.1095 15.21376720 77632
FENGYUN 3F              
1 57490U 23111A   24348.50164091  .00000175  00000+0  10300-3 0  9999
2 57490  98.7513  55.8136 0000356  49.8265 310.2943 14.19955692 70714
ARKTIKA-M 2             
1 58584U 23198A   24344.94955720  .00000161  00000+0  00000+0 0  9997
2 58584  63.2374 215.3268 6914505 269.4863  17.9258  2.00618044  7208
TIANMU-1 11             
1 58645U 23205A   24348.49422844  .00006876  00000+0  33282-3 0  9995
2 58645  97.3891   9.2533 0011870 134.0576 226.1638 15.18826867 53695
TIANMU-1 12             
1 58646U 23205B   24348.44542849  .00006469  00000+0  31383-3 0  9997
2 58646  97.3877   9.0990 0010044 126.2424 233.9740 15.18787476 53672
TIANMU-1 13             
1 58647U 23205C   24348.47818233  .00007407  00000+0  35861-3 0  9992
2 58647  97.3907   9.1945 0010727 109.5561 250.6833 15.18803582 53678
TIANMU-1 14             
1 58648U 23205D   24348.46216976  .00006852  00000+0  33201-3 0  9997
2 58648  97.3835   8.8687 0011318 112.9549 247.2880 15.18796314 53677
TIANMU-1 19             
1 58660U 23208A   24348.50748600  .00009395  00000+0  44409-3 0  9990
2 58660  97.4207  97.0366 0007429  99.6764 260.5311 15.19587558 53358
TIANMU-1 20             
1 58661U 23208B   24348.45353360  .00009773  00000+0  44543-3 0  9999
2 58661  97.4140  97.0772 0010094 109.5831 250.6496 15.20815078 53373
TIANMU-1 21             
1 58662U 23208C   24348.44966068  .00010509  00000+0  46004-3 0  9997
2 58662  97.4179  97.7171 0009652 108.8532 251.3751 15.22179369 53408
TIANMU-1 22             
1 58663U 23208D   24348.50580166  .00008830  00000+0  41505-3 0  9991
2 58663  97.4199  97.1265 0005808 119.3516 240.8300 15.19810801 53364
TIANMU-1 15             
1 58700U 24004A   24348.45758765  .00008145  00000+0  39364-3 0  9993
2 58700  97.4589 166.7500 0009559 135.1662 225.0346 15.18847267 51941
TIANMU-1 16             
1 58701U 24004B   24348.37375010  .00008060  00000+0  39040-3 0  9990
2 58701  97.4521 166.3800 0009687 137.6180 222.5804 15.18771748 51931
TIANMU-1 17             
1 58702U 24004C   24348.49060012  .00007567  00000+0  36610-3 0  9998
2 58702  97.4560 166.7234 0008163 132.0791 228.1139 15.18845339 51947
TIANMU-1 18             
1 58703U 24004D   24348.47338620  .00007271  00000+0  35206-3 0  9992
2 58703  97.4577 166.8178 0007934 125.2662 234.9316 15.18833753 51949
INSAT-3DS               
1 58990U 24033A   24348.39670821 -.00000142  00000+0  00000+0 0  9996
2 58990   0.0204 352.9057 0001899 273.8430  40.7040  1.00270629  3290
METEOR-M2 4             
1 59051U 24039A   24348.45703956  .00000093  00000+0  61439-4 0  9996
2 59051  98.6246 306.1656 0006586 333.6480  26.4362 14.22312863 40971
GOES 19                 
1 60133U 24119A   24348.36256413 -.00000170  00000+0  00000+0 0  9998
2 60133   0.0123 248.3452 0001406  45.3680 189.8762  1.00278686  1781
